start=new Date('2022-03-10T00:00:00.000Z').valueOf();
sats=[{"SEMIMAJOR_AXIS":"6925.398","EPHEMERIS_TYPE":"0","INCLINATION":"53.0556","MEAN_ANOMALY":"303.7263","LAUNCH_DATE":"2021-05-04","APOAPSIS":"548.557","OBJECT_TYPE":"PAYLOAD","OBJECT_NAME":"STARLINK-2570","DECAY_DATE":null,"PERIOD":"95.593","MEAN_MOTION_DDOT":"0.0000000000000","TIME_SYSTEM":"UTC","REF_FRAME":"TEME","COUNTRY_CODE":"US","EPOCH":"2022-03-09T21:40:33.217536","PERIAPSIS":"545.969","BSTAR":"0.00009743500000","REV_AT_EPOCH":"4713","CLASSIFICATION_TYPE":"U","NORAD_CAT_ID":"48405","ARG_OF_PERICENTER":"56.3904","RCS_SIZE":"LARGE","CENTER_NAME":"EARTH","GP_ID":"198359270","MEAN_ELEMENT_THEORY":"SGP4","OBJECT_ID":"2021-038BE","ELEMENT_SET_NO":"999","RA_OF_ASC_NODE":"59.3535","TLE_LINE1":"1 48405U 21038BE  22068.90316224  .00001169  00000-0  97435-4 0  9999","ECCENTRICITY":"0.00018690","FILE":"3352875","MEAN_MOTION_DOT":"0.00001169","SITE":"AFETR","TLE_LINE2":"2 48405  53.0556  59.3535 0001869  56.3904 303.7263 15.06383851 47137","MEAN_MOTION":"15.06383851"},{"SITE":"AFETR","MEAN_MOTION_DOT":"0.00001510","MEAN_MOTION":"15.06400422","TLE_LINE2":"2 48406  53.0557  59.9559 0001952  50.1776 309.9384 15.06400422 47117","MEAN_ELEMENT_THEORY":"SGP4","GP_ID":"198359520","CENTER_NAME":"EARTH","OBJECT_ID":"2021-038BF","RCS_SIZE":"LARGE","RA_OF_ASC_NODE":"59.9559","TLE_LINE1":"1 48406U 21038BF  22068.76676955  .00001510  00000-0  12028-3 0  9998","ECCENTRICITY":"0.00019520","FILE":"3352875","ELEMENT_SET_NO":"999","PERIAPSIS":"545.860","BSTAR":"0.00012028000000","REV_AT_EPOCH":"4711","MEAN_MOTION_DDOT":"0.0000000000000","TIME_SYSTEM":"UTC","COUNTRY_CODE":"US","EPOCH":"2022-03-09T18:24:08.889120","REF_FRAME":"TEME","NORAD_CAT_ID":"48406","ARG_OF_PERICENTER":"50.1776","CLASSIFICATION_TYPE":"U","EPHEMERIS_TYPE":"0","INCLINATION":"53.0557","MEAN_ANOMALY":"309.9384","SEMIMAJOR_AXIS":"6925.347","DECAY_DATE":null,"PERIOD":"95.592","OBJECT_NAME":"STARLINK-2568","LAUNCH_DATE":"2021-05-04","APOAPSIS":"548.564","OBJECT_TYPE":"PAYLOAD"},{"TIME_SYSTEM":"UTC","MEAN_MOTION_DDOT":"0.0000000000000","COUNTRY_CODE":"US","EPOCH":"2022-03-09T16:43:18.946848","REF_FRAME":"TEME","PERIAPSIS":"546.082","REV_AT_EPOCH":"4709","BSTAR":"0.00031037000000","CLASSIFICATION_TYPE":"U","NORAD_CAT_ID":"48407","ARG_OF_PERICENTER":"56.3169","SEMIMAJOR_AXIS":"6925.371","MEAN_ANOMALY":"303.7979","INCLINATION":"53.0547","EPHEMERIS_TYPE":"0","LAUNCH_DATE":"2021-05-04","APOAPSIS":"548.391","OBJECT_TYPE":"PAYLOAD","DECAY_DATE":null,"OBJECT_NAME":"STARLINK-2595","PERIOD":"95.593","MEAN_MOTION_DOT":"0.00004343","SITE":"AFETR","TLE_LINE2":"2 48407  53.0547  60.2577 0001667  56.3169 303.7979 15.06392629 47097","MEAN_MOTION":"15.06392629","RCS_SIZE":"LARGE","OBJECT_ID":"2021-038BG","GP_ID":"198360772","CENTER_NAME":"EARTH","MEAN_ELEMENT_THEORY":"SGP4","ELEMENT_SET_NO":"999","ECCENTRICITY":"0.00016670","TLE_LINE1":"1 48407U 21038BG  22068.69674707  .00004343  00000-0  31037-3 0  9992","RA_OF_ASC_NODE":"60.2577","FILE":"3352875"},{"MEAN_MOTION_DOT":"0.00001898","SITE":"AFETR","TLE_LINE2":"2 48408  53.0560  60.2795 0001745  67.4796 292.6378 15.06390864 47099","MEAN_MOTION":"15.06390864","RCS_SIZE":"LARGE","OBJECT_ID":"2021-038BH","GP_ID":"198361023","CENTER_NAME":"EARTH","MEAN_ELEMENT_THEORY":"SGP4","ELEMENT_SET_NO":"999","FILE":"3352875","TLE_LINE1":"1 48408U 21038BH  22068.69306357  .00001898  00000-0  14631-3 0  9999","ECCENTRICITY":"0.00017450","RA_OF_ASC_NODE":"60.2795","REF_FRAME":"TEME","COUNTRY_CODE":"US","EPOCH":"2022-03-09T16:38:00.692448","TIME_SYSTEM":"UTC","MEAN_MOTION_DDOT":"0.0000000000000","REV_AT_EPOCH":"4709","BSTAR":"0.00014631000000","PERIAPSIS":"546.033","CLASSIFICATION_TYPE":"U","ARG_OF_PERICENTER":"67.4796","NORAD_CAT_ID":"48408","SEMIMAJOR_AXIS":"6925.377","MEAN_ANOMALY":"292.6378","EPHEMERIS_TYPE":"0","INCLINATION":"53.0560","APOAPSIS":"548.450","OBJECT_TYPE":"PAYLOAD","LAUNCH_DATE":"2021-05-04","OBJECT_NAME":"STARLINK-2592","DECAY_DATE":null,"PERIOD":"95.593"},{"CLASSIFICATION_TYPE":"U","ARG_OF_PERICENTER":"44.4273","NORAD_CAT_ID":"48409","COUNTRY_CODE":"US","REF_FRAME":"TEME","EPOCH":"2022-03-09T17:11:51.368928","MEAN_MOTION_DDOT":"0.0000000000000","TIME_SYSTEM":"UTC","BSTAR":"0.00013256000000","REV_AT_EPOCH":"4704","PERIAPSIS":"545.894","OBJECT_TYPE":"PAYLOAD","APOAPSIS":"548.577","LAUNCH_DATE":"2021-05-04","DECAY_DATE":null,"PERIOD":"95.593","OBJECT_NAME":"STARLINK-2596","SEMIMAJOR_AXIS":"6925.371","INCLINATION":"53.0559","EPHEMERIS_TYPE":"0","MEAN_ANOMALY":"315.6871","TLE_LINE2":"2 48409  53.0559  65.1835 0001937  44.4273 315.6871 15.06392724 47041","MEAN_MOTION":"15.06392724","MEAN_MOTION_DOT":"0.00001693","SITE":"AFETR","ELEMENT_SET_NO":"999","FILE":"3352875","RA_OF_ASC_NODE":"65.1835","TLE_LINE1":"1 48409U 21038BJ  22068.71656677  .00001693  00000-0  13256-3 0  9991","ECCENTRICITY":"0.00019370","RCS_SIZE":"LARGE","CENTER_NAME":"EARTH","GP_ID":"198359771","MEAN_ELEMENT_THEORY":"SGP4","OBJECT_ID":"2021-038BJ"},{"MEAN_MOTION":"15.06390082","TLE_LINE2":"2 48410  53.0555  14.2906 0001714  67.4122 273.6364 15.06390082  3580","SITE":"AFETR","MEAN_MOTION_DOT":"-0.00000151","RA_OF_ASC_NODE":"14.2906","TLE_LINE1":"1 48410U 21038BK  22068.91668981 -.00000151  00000-0  87672-5 0  9990","ECCENTRICITY":"0.00017140","FILE":"3352875","ELEMENT_SET_NO":"999","MEAN_ELEMENT_THEORY":"SGP4","GP_ID":"198360021","CENTER_NAME":"EARTH","OBJECT_ID":"2021-038BK","RCS_SIZE":"LARGE","NORAD_CAT_ID":"48410","ARG_OF_PERICENTER":"67.4122","CLASSIFICATION_TYPE":"U","PERIAPSIS":"546.057","BSTAR":"0.00000876720000","REV_AT_EPOCH":"358","MEAN_MOTION_DDOT":"0.0000000000000","TIME_SYSTEM":"UTC","COUNTRY_CODE":"US","REF_FRAME":"TEME","EPOCH":"2022-03-09T22:00:01.999584","PERIOD":"95.593","DECAY_DATE":null,"OBJECT_NAME":"STARLINK-2563","LAUNCH_DATE":"2021-05-04","APOAPSIS":"548.431","OBJECT_TYPE":"PAYLOAD","INCLINATION":"53.0555","EPHEMERIS_TYPE":"0","MEAN_ANOMALY":"273.6364","SEMIMAJOR_AXIS":"6925.379"},{"MEAN_ANOMALY":"184.0709","EPHEMERIS_TYPE":"0","INCLINATION":"53.0550","SEMIMAJOR_AXIS":"6925.289","PERIOD":"95.591","DECAY_DATE":null,"OBJECT_NAME":"STARLINK-2505","OBJECT_TYPE":"PAYLOAD","APOAPSIS":"548.390","LAUNCH_DATE":"2021-05-04","REV_AT_EPOCH":"359","BSTAR":"-0.00039538000000","PERIAPSIS":"545.918","EPOCH":"2022-03-09T22:00:01.999584","COUNTRY_CODE":"US","REF_FRAME":"TEME","TIME_SYSTEM":"UTC","MEAN_MOTION_DDOT":"0.0000000000000","ARG_OF_PERICENTER":"64.3677","NORAD_CAT_ID":"48411","CLASSIFICATION_TYPE":"U","OBJECT_ID":"2021-038BL","GP_ID":"198360272","MEAN_ELEMENT_THEORY":"SGP4","CENTER_NAME":"EARTH","RCS_SIZE":"LARGE","FILE":"3352875","TLE_LINE1":"1 48411U 21038BL  22068.91668981 -.00006169  00000-0 -39538-3 0  9993","ECCENTRICITY":"0.00017850","RA_OF_ASC_NODE":"9.2887","ELEMENT_SET_NO":"999","SITE":"AFETR","MEAN_MOTION_DOT":"-0.00006169","MEAN_MOTION":"15.06419456","TLE_LINE2":"2 48411  53.0550   9.2887 0001785  64.3677 184.0709 15.06419456  3593"},{"MEAN_MOTION":"15.06408926","TLE_LINE2":"2 48412  53.0563   9.2882 0001799  54.8057 318.8357 15.06408926  3590","SITE":"AFETR","MEAN_MOTION_DOT":"-0.00005194","RA_OF_ASC_NODE":"9.2882","ECCENTRICITY":"0.00017990","TLE_LINE1":"1 48412U 21038BM  22068.91668981 -.00005194  00000-0 -32995-3 0  9991","FILE":"3352875","ELEMENT_SET_NO":"999","GP_ID":"198360523","MEAN_ELEMENT_THEORY":"SGP4","CENTER_NAME":"EARTH","OBJECT_ID":"2021-038BM","RCS_SIZE":"LARGE","NORAD_CAT_ID":"48412","ARG_OF_PERICENTER":"54.8057","CLASSIFICATION_TYPE":"U","PERIAPSIS":"545.940","BSTAR":"-0.00032995000000","REV_AT_EPOCH":"359","MEAN_MOTION_DDOT":"0.0000000000000","TIME_SYSTEM":"UTC","COUNTRY_CODE":"US","EPOCH":"2022-03-09T22:00:01.999584","REF_FRAME":"TEME","DECAY_DATE":null,"PERIOD":"95.592","OBJECT_NAME":"STARLINK-2581","LAUNCH_DATE":"2021-05-04","OBJECT_TYPE":"PAYLOAD","APOAPSIS":"548.432","INCLINATION":"53.0563","EPHEMERIS_TYPE":"0","MEAN_ANOMALY":"318.8357","SEMIMAJOR_AXIS":"6925.321"},{"SITE":"AFETR","MEAN_MOTION_DOT":"0.00000501","MEAN_MOTION":"15.06382429","TLE_LINE2":"2 48428  53.0551 264.6680 0001599  65.5382 294.5774 15.06382429 46370","OBJECT_ID":"2021-040A","CENTER_NAME":"EARTH","GP_ID":"198361025","MEAN_ELEMENT_THEORY":"SGP4","RCS_SIZE":"LARGE","TLE_LINE1":"1 48428U 21040A   22068.83083449  .00000501  00000-0  52578-4 0  9997","ECCENTRICITY":"0.00015990","RA_OF_ASC_NODE":"264.6680","FILE":"3352875","ELEMENT_SET_NO":"999","PERIAPSIS":"546.160","REV_AT_EPOCH":"4637","BSTAR":"0.00005257800000","TIME_SYSTEM":"UTC","MEAN_MOTION_DDOT":"0.0000000000000","REF_FRAME":"TEME","COUNTRY_CODE":"US","EPOCH":"2022-03-09T19:56:24.099936","NORAD_CAT_ID":"48428","ARG_OF_PERICENTER":"65.5382","CLASSIFICATION_TYPE":"U","MEAN_ANOMALY":"294.5774","EPHEMERIS_TYPE":"0","INCLINATION":"53.0551","SEMIMAJOR_AXIS":"6925.402","DECAY_DATE":null,"PERIOD":"95.593","OBJECT_NAME":"STARLINK-2461","LAUNCH_DATE":"2021-05-09","OBJECT_TYPE":"PAYLOAD","APOAPSIS":"548.375"},{"ELEMENT_SET_NO":"999","FILE":"3352875","RA_OF_ASC_NODE":"234.2873","ECCENTRICITY":"0.00015860","TLE_LINE1":"1 48429U 21040B   22068.91668981  .00049857  00000-0  33455-2 0  9995","RCS_SIZE":"LARGE","GP_ID":"198359773","CENTER_NAME":"EARTH","MEAN_ELEMENT_THEORY":"SGP4","OBJECT_ID":"2021-040B","TLE_LINE2":"2 48429  53.0543 234.2873 0001586  78.0471 198.1117 15.06366046  3597","MEAN_MOTION":"15.06366046","MEAN_MOTION_DOT":"0.00049857","SITE":"AFETR","OBJECT_TYPE":"PAYLOAD","APOAPSIS":"548.416","LAUNCH_DATE":"2021-05-09","PERIOD":"95.594","DECAY_DATE":null,"OBJECT_NAME":"STARLINK-2749","SEMIMAJOR_AXIS":"6925.453","EPHEMERIS_TYPE":"0","INCLINATION":"53.0543","MEAN_ANOMALY":"198.1117","CLASSIFICATION_TYPE":"U","ARG_OF_PERICENTER":"78.0471","NORAD_CAT_ID":"48429","REF_FRAME":"TEME","COUNTRY_CODE":"US","EPOCH":"2022-03-09T22:00:01.999584","MEAN_MOTION_DDOT":"0.0000000000000","TIME_SYSTEM":"UTC","BSTAR":"0.00334550000000","REV_AT_EPOCH":"359","PERIAPSIS":"546.219"}];
